COSMOS 2425 (716)       
1 29670U 06062A   18289.87140387  .00000030  00000-0  10000-3 0  9991
2 29670  65.2215 288.4215 0021136 338.0929 206.9289  2.13104893 91900
COSMOS 2426 (717)       
1 29671U 06062B   18289.57504034  .00000029  00000-0  10000-3 0  9990
2 29671  65.2395 288.5333 0018396 174.7104 357.8186  2.13103004 91901
COSMOS 2433 (720)       
1 32275U 07052A   18289.71437186 -.00000039  00000-0  10000-3 0  9995
2 32275  65.7477  49.2877 0002485 212.4553  42.9666  2.13104534 85419
COSMOS 2432 (719)       
1 32276U 07052B   18290.02318596 -.00000039  00000-0  10000-3 0  9995
2 32276  65.7596  49.3575 0008831 335.8637 108.1574  2.13103770 85427
COSMOS 2434 (721)       
1 32393U 07065A   18289.67103009  .00000029  00000-0  00000-0 0  9993
2 32393  64.8362 287.3467 0002601 162.1155 307.8317  2.13102974 84121
COSMOS 2436 (723)       
1 32395U 07065C   18289.72988781  .00000029  00000-0  10000-3 0  9993
2 32395  64.8463 287.3954 0014390 349.1379 217.0613  2.13104306 84053
COSMOS 2456 (730)       
1 36111U 09070A   18289.65990750 -.00000002  00000-0  00000-0 0  9990
2 36111  64.1879 166.9507 0003859 326.3270 307.6706  2.13103067 68782
COSMOS 2457 (733)       
1 36112U 09070B   18289.51727429 -.00000003  00000-0  00000-0 0  9998
2 36112  64.1677 166.8626 0005993 161.1929 129.6376  2.13101593 68784
COSMOS 2458 (734)       
1 36113U 09070C   18289.98216854  .00000000  00000-0  10000-3 0  9995
2 36113  64.1750 166.8601 0002401  30.7797 301.0277  2.13091448 68799
COSMOS 2459 (731)       
1 36400U 10007A   18289.50569235 -.00000041  00000-0  10000-3 0  9994
2 36400  65.6538  48.3417 0024705 353.8658 319.4123  2.13102131 67135
COSMOS 2461 (735)       
1 36401U 10007B   18289.68563440 -.00000041  00000-0  10000-3 0  9996
2 36401  65.6492  48.3100 0007505  81.2794 280.6227  2.13102047 67147
COSMOS 2460 (732)       
1 36402U 10007C   18289.63568740 -.00000041  00000-0  10000-3 0  9990
2 36402  65.6370  48.2779 0001940 137.2406 226.7213  2.13101564 67142
COSMOS 2464 (736)       
1 37139U 10041C   18289.99782866  .00000029  00000-0  00000+0 0  9992
2 37139  64.4384 287.0799 0022533   5.6786 222.7893  2.13102705 63219
COSMOS 2471 (701K)      
1 37372U 11009A   18290.12543924 -.00000042  00000-0  00000+0 0  9999
2 37372  65.6340  48.2050 0008502 221.2073 305.0605  2.13107572 59426
COSMOS 2474 (742)       
1 37829U 11055A   18289.61564326 -.00000003  00000-0  00000+0 0  9995
2 37829  64.5099 167.7200 0007893 245.0466 212.5488  2.13101878 54786
COSMOS 2476 (744)       
1 37867U 11064A   18289.55237201 -.00000003  00000-0  00000-0 0  9990
2 37867  64.4905 167.7811 0017789 239.8022 215.3223  2.13101927 54137
COSMOS 2477 (745)       
1 37868U 11064B   18290.07099956  .00000000  00000-0  00000+0 0  9998
2 37868  64.4992 167.8139 0015463 240.9489  70.8914  2.13101851 54097
COSMOS 2475 (743)       
1 37869U 11064C   18289.66093490 -.00000003  00000-0  00000-0 0  9994
2 37869  64.5055 167.8237 0019647 266.6300  47.4897  2.13102225 54099
COSMOS 2485 (747)       
1 39155U 13019A   18289.78855892 -.00000002  00000-0  00000-0 0  9990
2 39155  64.6598 167.9096 0018307 234.7559  86.4154  2.13102038 42605
COSMOS 2492 (754)       
1 39620U 14012A   18289.65249405 -.00000041  00000-0  10000-3 0  9991
2 39620  65.5276  48.1456 0012150 329.7447 281.9343  2.13103368 35551
COSMOS 2500 (755)       
1 40001U 14032A   18289.61732469 -.00000042  00000-0  00000+0 0  9997
2 40001  65.4688  48.1076 0007154 191.6954 255.0022  2.13102613 33777
COSMOS 2501 (702K)      
1 40315U 14075A   18289.59514032  .00000026  00000-0  00000-0 0  9995
2 40315  64.1625 288.2625 0017416 211.6178  18.4086  2.13098524 30179
COSMOS 2514 (751)       
1 41330U 16008A   18290.23575929 -.00000043  00000-0  00000+0 0  9995
2 41330  65.2707  48.1096 0010141 204.6785 177.6144  2.13103133 20950
COSMOS 2516 (753)       
1 41554U 16032A   18289.93120841  .00000028  00000-0  00000+0 0  9996
2 41554  64.3839 288.1494 0014850 224.0492 175.4551  2.13101706 18559
COSMOS 2522 (752)       
1 42939U 17055A   18290.12411130  .00000029  00000-0  00000+0 0  9998
2 42939  64.6145 288.1452 0010272 246.7492 167.1742  2.13101913  8312
